IRIDIUM 136             
1 42962U 17061H   23336.26248073  .00000952  00000+0  33282-3 0  9993
2 42962  86.3986  53.0335 0001964 104.1038 256.0376 14.34221103321838
